ONEWEB-0120             
1 47266U 20100J   24177.41549587  .00000383  00000+0  10303-2 0  9994
2 47266  87.8946 134.3934 0001921  80.7810 279.3535 13.12444683170056
ONEWEB-0121             
1 47267U 20100K   24176.94657915  .00001476  00000+0  40670-2 0  9991
2 47267  87.8942 134.4773 0002235  80.3109 279.8272 13.12452114169904
ONEWEB-0122             
1 47268U 20100L   24176.94157740  .00000362  00000+0  97044-3 0  9994
2 47268  87.8941 134.4827 0002084  77.0946 283.0416 13.12446858169813
ONEWEB-0123             
1 47269U 20100M   24177.39426497  .00000106  00000+0  25893-3 0  9992
2 47269  87.8946 134.4069 0001968  81.9332 278.2020 13.12445241170016
ONEWEB-0124             
1 47270U 20100N   24177.38291756 -.00000171  00000+0 -51193-3 0  9997
2 47270  87.8944 134.4053 0002377  82.8061 277.3337 13.12445657169899
ONEWEB-0125             
1 47271U 20100P   24176.90280238 -.00000218  00000+0 -64021-3 0  9994
2 47271  87.8945 134.4601 0002059  88.1312 272.0052 13.12441506169890
ONEWEB-0126             
1 47272U 20100Q   24177.38536265 -.00000090  00000+0 -28656-3 0  9994
2 47272  87.8942 134.3703 0001954  79.0071 281.1277 13.12444917170020
ONEWEB-0127             
1 47273U 20100R   24176.88981483  .00000177  00000+0  45622-3 0  9991
2 47273  87.8947 134.4972 0002009  77.7552 282.3801 13.12442300169989
